ONEWEB-0092             
1 45437U 20020P   25301.38168123 -.00000475  00000+0 -13750-2 0  9995
2 45437  87.8842  67.2228 0001525  89.9125 270.2178 13.11417595272405
ONEWEB-0085             
1 45438U 20020Q   25301.34185950  .00000642  00000+0  17761-2 0  9999
2 45438  87.8837  67.2418 0001584  97.4374 262.6934 13.11419014272285
ONEWEB-0096             
1 45439U 20020R   25301.41983996  .00000532  00000+0  14642-2 0  9997
2 45439  87.8848  67.2021 0001515 104.7615 255.3681 13.11418400272288
ONEWEB-0037             
1 45440U 20020S   25301.40034305  .00000061  00000+0  13727-3 0  9990
2 45440  87.8858  67.1725 0001579  94.7273 265.4036 13.11418143272313
ONEWEB-0042             
1 45441U 20020T   25301.40952916  .00000369  00000+0  10061-2 0  9996
2 45441  87.8843  67.2052 0001490  97.3788 262.7509 13.11419520272285
ONEWEB-0098             
1 45442U 20020U   25301.40543065  .00000241  00000+0  64438-3 0  9995
2 45442  87.8846  67.2179 0001683  98.9857 261.1462 13.11419802272269
ONEWEB-0055             
1 45443U 20020V   25301.38846447 -.00000404  00000+0 -11744-2 0  9997
2 45443  87.8845  67.2222 0001634  99.5791 260.5522 13.11418571272237
ONEWEB-0093             
1 45444U 20020W   25301.36403537  .00000024  00000+0  30923-4 0  9993
2 45444  87.8846  67.2132 0001190 105.4251 254.7009 13.11415698272292
ONEWEB-0029             
1 45445U 20020X   25301.37998265 -.00000468  00000+0 -13571-2 0  9994
2 45445  87.8845  67.2227 0001508 103.2396 256.8900 13.11415379272273
ONEWEB-0068             
1 45446U 20020Y   25301.44004110  .00000012  00000+0 -28612-5 0  9999
2 45446  87.8846  67.1992 0001499 105.4164 254.7129 13.11416375272221
ONEWEB-0046             
1 45447U 20020Z   25301.35540502  .00000409  00000+0  11170-2 0  9997
2 45447  87.8844  67.2246 0001337  96.4935 263.6345 13.11417087272229
ONEWEB-0063             
1 45448U 20020AA  25301.38423443 -.00000501  00000+0 -14482-2 0  9999
2 45448  87.8843  67.2170 0001483  90.6603 269.4695 13.11417742272315
ONEWEB-0019             
1 45449U 20020AB  25301.43426125  .00000193  00000+0  50814-3 0  9991
2 45449  87.8839  67.2211 0001617 101.6916 258.4394 13.11414672272162
ONEWEB-0094             
1 45450U 20020AC  25301.36981182  .00000048  00000+0  91099-4 0  9994
2 45450  87.9125  51.9295 0001689 101.3605 258.7716 13.17647759275788
ONEWEB-0087             
1 45451U 20020AD  25301.39426565 -.00000181  00000+0 -54769-3 0  9999
2 45451  87.8853  67.1686 0001450 109.9076 250.2208 13.11419908272205
ONEWEB-0082             
1 45452U 20020AE  25301.39101106 -.00000281  00000+0 -82794-3 0  9991
2 45452  87.8856  67.1947 0001512 106.7320 253.3974 13.11419362272292
ONEWEB-0050             
1 45453U 20020AF  25301.55615483  .00111487  00000+0  11632-1 0  9998
2 45453  88.9143 264.8194 0004398  66.5370 293.6320 14.89154278305890
