[{"OBJECT_NAME":"ONEWEB-0092","OBJECT_ID":"2020-020P","EPOCH":"2025-10-28T09:09:37.258272","MEAN_MOTION":13.11417595,"ECCENTRICITY":0.00015252,"INCLINATION":87.8842,"RA_OF_ASC_NODE":67.2228,"ARG_OF_PERICENTER":89.9125,"MEAN_ANOMALY":270.2178,"EPHEMERIS_TYPE":0,"CLASSIFICATION_TYPE":"U","NORAD_CAT_ID":45437,"ELEMENT_SET_NO":999,"REV_AT_EPOCH":27240,"BSTAR":-0.00137504,"MEAN_MOTION_DOT":-4.75e-6,"MEAN_MOTION_DDOT":0},{"OBJECT_NAME":"ONEWEB-0085","OBJECT_ID":"2020-020Q","EPOCH":"2025-10-28T08:12:16.660800","MEAN_MOTION":13.11419014,"ECCENTRICITY":0.0001584,"INCLINATION":87.8837,"RA_OF_ASC_NODE":67.2418,"ARG_OF_PERICENTER":97.4374,"MEAN_ANOMALY":262.6934,"EPHEMERIS_TYPE":0,"CLASSIFICATION_TYPE":"U","NORAD_CAT_ID":45438,"ELEMENT_SET_NO":999,"REV_AT_EPOCH":27228,"BSTAR":0.0017760714,"MEAN_MOTION_DOT":6.42e-6,"MEAN_MOTION_DDOT":0},{"OBJECT_NAME":"ONEWEB-0096","OBJECT_ID":"2020-020R","EPOCH":"2025-10-28T10:04:34.172544","MEAN_MOTION":13.114184,"ECCENTRICITY":0.00015153,"INCLINATION":87.8848,"RA_OF_ASC_NODE":67.2021,"ARG_OF_PERICENTER":104.7615,"MEAN_ANOMALY":255.3681,"EPHEMERIS_TYPE":0,"CLASSIFICATION_TYPE":"U","NORAD_CAT_ID":45439,"ELEMENT_SET_NO":999,"REV_AT_EPOCH":27228,"BSTAR":0.0014642026,"MEAN_MOTION_DOT":5.32e-6,"MEAN_MOTION_DDOT":0},{"OBJECT_NAME":"ONEWEB-0037","OBJECT_ID":"2020-020S","EPOCH":"2025-10-28T09:36:29.639520","MEAN_MOTION":13.11418143,"ECCENTRICITY":0.00015793,"INCLINATION":87.8858,"RA_OF_ASC_NODE":67.1725,"ARG_OF_PERICENTER":94.7273,"MEAN_ANOMALY":265.4036,"EPHEMERIS_TYPE":0,"CLASSIFICATION_TYPE":"U","NORAD_CAT_ID":45440,"ELEMENT_SET_NO":999,"REV_AT_EPOCH":27231,"BSTAR":0.00013726979,"MEAN_MOTION_DOT":6.1e-7,"MEAN_MOTION_DDOT":0},{"OBJECT_NAME":"ONEWEB-0042","OBJECT_ID":"2020-020T","EPOCH":"2025-10-28T09:49:43.319424","MEAN_MOTION":13.1141952,"ECCENTRICITY":0.00014904,"INCLINATION":87.8843,"RA_OF_ASC_NODE":67.2052,"ARG_OF_PERICENTER":97.3788,"MEAN_ANOMALY":262.7509,"EPHEMERIS_TYPE":0,"CLASSIFICATION_TYPE":"U","NORAD_CAT_ID":45441,"ELEMENT_SET_NO":999,"REV_AT_EPOCH":27228,"BSTAR":0.0010060758,"MEAN_MOTION_DOT":3.69e-6,"MEAN_MOTION_DDOT":0},{"OBJECT_NAME":"ONEWEB-0098","OBJECT_ID":"2020-020U","EPOCH":"2025-10-28T09:43:49.208160","MEAN_MOTION":13.11419802,"ECCENTRICITY":0.00016839,"INCLINATION":87.8846,"RA_OF_ASC_NODE":67.2179,"ARG_OF_PERICENTER":98.9857,"MEAN_ANOMALY":261.1462,"EPHEMERIS_TYPE":0,"CLASSIFICATION_TYPE":"U","NORAD_CAT_ID":45442,"ELEMENT_SET_NO":999,"REV_AT_EPOCH":27226,"BSTAR":0.00064438108,"MEAN_MOTION_DOT":2.41e-6,"MEAN_MOTION_DDOT":0},{"OBJECT_NAME":"ONEWEB-0055","OBJECT_ID":"2020-020V","EPOCH":"2025-10-28T09:19:23.330208","MEAN_MOTION":13.11418571,"ECCENTRICITY":0.00016346,"INCLINATION":87.8845,"RA_OF_ASC_NODE":67.2222,"ARG_OF_PERICENTER":99.5791,"MEAN_ANOMALY":260.5522,"EPHEMERIS_TYPE":0,"CLASSIFICATION_TYPE":"U","NORAD_CAT_ID":45443,"ELEMENT_SET_NO":999,"REV_AT_EPOCH":27223,"BSTAR":-0.0011743624,"MEAN_MOTION_DOT":-4.04e-6,"MEAN_MOTION_DDOT":0},{"OBJECT_NAME":"ONEWEB-0093","OBJECT_ID":"2020-020W","EPOCH":"2025-10-28T08:44:12.655968","MEAN_MOTION":13.11415698,"ECCENTRICITY":0.00011907,"INCLINATION":87.8846,"RA_OF_ASC_NODE":67.2132,"ARG_OF_PERICENTER":105.4251,"MEAN_ANOMALY":254.7009,"EPHEMERIS_TYPE":0,"CLASSIFICATION_TYPE":"U","NORAD_CAT_ID":45444,"ELEMENT_SET_NO":999,"REV_AT_EPOCH":27229,"BSTAR":3.0922539e-5,"MEAN_MOTION_DOT":2.4e-7,"MEAN_MOTION_DDOT":0},{"OBJECT_NAME":"ONEWEB-0029","OBJECT_ID":"2020-020X","EPOCH":"2025-10-28T09:07:10.500960","MEAN_MOTION":13.11415379,"ECCENTRICITY":0.00015086,"INCLINATION":87.8845,"RA_OF_ASC_NODE":67.2227,"ARG_OF_PERICENTER":103.2396,"MEAN_ANOMALY":256.89,"EPHEMERIS_TYPE":0,"CLASSIFICATION_TYPE":"U","NORAD_CAT_ID":45445,"ELEMENT_SET_NO":999,"REV_AT_EPOCH":27227,"BSTAR":-0.0013570794,"MEAN_MOTION_DOT":-4.68e-6,"MEAN_MOTION_DDOT":0},{"OBJECT_NAME":"ONEWEB-0068","OBJECT_ID":"2020-020Y","EPOCH":"2025-10-28T10:33:39.551040","MEAN_MOTION":13.11416375,"ECCENTRICITY":0.00014994,"INCLINATION":87.8846,"RA_OF_ASC_NODE":67.1992,"ARG_OF_PERICENTER":105.4164,"MEAN_ANOMALY":254.7129,"EPHEMERIS_TYPE":0,"CLASSIFICATION_TYPE":"U","NORAD_CAT_ID":45446,"ELEMENT_SET_NO":999,"REV_AT_EPOCH":27222,"BSTAR":-2.861203e-6,"MEAN_MOTION_DOT":1.2e-7,"MEAN_MOTION_DDOT":0},{"OBJECT_NAME":"ONEWEB-0046","OBJECT_ID":"2020-020Z","EPOCH":"2025-10-28T08:31:46.993728","MEAN_MOTION":13.11417087,"ECCENTRICITY":0.00013378,"INCLINATION":87.8844,"RA_OF_ASC_NODE":67.2246,"ARG_OF_PERICENTER":96.4935,"MEAN_ANOMALY":263.6345,"EPHEMERIS_TYPE":0,"CLASSIFICATION_TYPE":"U","NORAD_CAT_ID":45447,"ELEMENT_SET_NO":999,"REV_AT_EPOCH":27222,"BSTAR":0.0011169644,"MEAN_MOTION_DOT":4.09e-6,"MEAN_MOTION_DDOT":0},{"OBJECT_NAME":"ONEWEB-0063","OBJECT_ID":"2020-020AA","EPOCH":"2025-10-28T09:13:17.854752","MEAN_MOTION":13.11417742,"ECCENTRICITY":0.00014835,"INCLINATION":87.8843,"RA_OF_ASC_NODE":67.217,"ARG_OF_PERICENTER":90.6603,"MEAN_ANOMALY":269.4695,"EPHEMERIS_TYPE":0,"CLASSIFICATION_TYPE":"U","NORAD_CAT_ID":45448,"ELEMENT_SET_NO":999,"REV_AT_EPOCH":27231,"BSTAR":-0.0014481589,"MEAN_MOTION_DOT":-5.01e-6,"MEAN_MOTION_DDOT":0},{"OBJECT_NAME":"ONEWEB-0019","OBJECT_ID":"2020-020AB","EPOCH":"2025-10-28T10:25:20.172000","MEAN_MOTION":13.11414672,"ECCENTRICITY":0.00016176,"INCLINATION":87.8839,"RA_OF_ASC_NODE":67.2211,"ARG_OF_PERICENTER":101.6916,"MEAN_ANOMALY":258.4394,"EPHEMERIS_TYPE":0,"CLASSIFICATION_TYPE":"U","NORAD_CAT_ID":45449,"ELEMENT_SET_NO":999,"REV_AT_EPOCH":27216,"BSTAR":0.0005081417,"MEAN_MOTION_DOT":1.93e-6,"MEAN_MOTION_DDOT":0},{"OBJECT_NAME":"ONEWEB-0094","OBJECT_ID":"2020-020AC","EPOCH":"2025-10-28T08:52:31.741248","MEAN_MOTION":13.17647759,"ECCENTRICITY":0.00016892,"INCLINATION":87.9125,"RA_OF_ASC_NODE":51.9295,"ARG_OF_PERICENTER":101.3605,"MEAN_ANOMALY":258.7716,"EPHEMERIS_TYPE":0,"CLASSIFICATION_TYPE":"U","NORAD_CAT_ID":45450,"ELEMENT_SET_NO":999,"REV_AT_EPOCH":27578,"BSTAR":9.1098884e-5,"MEAN_MOTION_DOT":4.8e-7,"MEAN_MOTION_DDOT":0},{"OBJECT_NAME":"ONEWEB-0087","OBJECT_ID":"2020-020AD","EPOCH":"2025-10-28T09:27:44.552160","MEAN_MOTION":13.11419908,"ECCENTRICITY":0.000145,"INCLINATION":87.8853,"RA_OF_ASC_NODE":67.1686,"ARG_OF_PERICENTER":109.9076,"MEAN_ANOMALY":250.2208,"EPHEMERIS_TYPE":0,"CLASSIFICATION_TYPE":"U","NORAD_CAT_ID":45451,"ELEMENT_SET_NO":999,"REV_AT_EPOCH":27220,"BSTAR":-0.00054769029,"MEAN_MOTION_DOT":-1.81e-6,"MEAN_MOTION_DDOT":0},{"OBJECT_NAME":"ONEWEB-0082","OBJECT_ID":"2020-020AE","EPOCH":"2025-10-28T09:23:03.355584","MEAN_MOTION":13.11419362,"ECCENTRICITY":0.00015121,"INCLINATION":87.8856,"RA_OF_ASC_NODE":67.1947,"ARG_OF_PERICENTER":106.732,"MEAN_ANOMALY":253.3974,"EPHEMERIS_TYPE":0,"CLASSIFICATION_TYPE":"U","NORAD_CAT_ID":45452,"ELEMENT_SET_NO":999,"REV_AT_EPOCH":27229,"BSTAR":-0.00082794301,"MEAN_MOTION_DOT":-2.81e-6,"MEAN_MOTION_DDOT":0},{"OBJECT_NAME":"ONEWEB-0050","OBJECT_ID":"2020-020AF","EPOCH":"2025-10-28T13:20:51.777312","MEAN_MOTION":14.89154278,"ECCENTRICITY":0.00043986,"INCLINATION":88.9143,"RA_OF_ASC_NODE":264.8194,"ARG_OF_PERICENTER":66.537,"MEAN_ANOMALY":293.632,"EPHEMERIS_TYPE":0,"CLASSIFICATION_TYPE":"U","NORAD_CAT_ID":45453,"ELEMENT_SET_NO":999,"REV_AT_EPOCH":30589,"BSTAR":0.011632289,"MEAN_MOTION_DOT":0.00111487,"MEAN_MOTION_DDOT":0}]
